[{"OBJECT_NAME":"STARLINK-3970","OBJECT_ID":"2022-053BC","EPOCH":"2025-07-27T20:43:02.652960","MEAN_MOTION":15.08838763,"ECCENTRICITY":0.0001324,"INCLINATION":53.218,"RA_OF_ASC_NODE":63.4076,"ARG_OF_PERICENTER":90.1598,"MEAN_ANOMALY":269.9546,"EPHEMERIS_TYPE":0,"CLASSIFICATION_TYPE":"U","NORAD_CAT_ID":52706,"ELEMENT_SET_NO":999,"REV_AT_EPOCH":17694,"BSTAR":-1.0167e-5,"MEAN_MOTION_DOT":-4.5e-6,"MEAN_MOTION_DDOT":0},{"OBJECT_NAME":"STARLINK-4007","OBJECT_ID":"2022-053BD","EPOCH":"2025-07-27T04:17:22.453440","MEAN_MOTION":15.08835675,"ECCENTRICITY":0.0001053,"INCLINATION":53.2182,"RA_OF_ASC_NODE":66.3671,"ARG_OF_PERICENTER":91.3312,"MEAN_ANOMALY":268.78,"EPHEMERIS_TYPE":0,"CLASSIFICATION_TYPE":"U","NORAD_CAT_ID":52707,"ELEMENT_SET_NO":999,"REV_AT_EPOCH":17685,"BSTAR":3.2593e-5,"MEAN_MOTION_DOT":2.31e-6,"MEAN_MOTION_DDOT":0},{"OBJECT_NAME":"STARLINK-3962","OBJECT_ID":"2022-053BE","EPOCH":"2025-07-27T14:53:17.661984","MEAN_MOTION":15.088363,"ECCENTRICITY":0.0001301,"INCLINATION":53.2182,"RA_OF_ASC_NODE":64.4854,"ARG_OF_PERICENTER":89.8813,"MEAN_ANOMALY":270.2328,"EPHEMERIS_TYPE":0,"CLASSIFICATION_TYPE":"U","NORAD_CAT_ID":52708,"ELEMENT_SET_NO":999,"REV_AT_EPOCH":17754,"BSTAR":3.8105e-5,"MEAN_MOTION_DOT":3.19e-6,"MEAN_MOTION_DDOT":0},{"OBJECT_NAME":"STARLINK-4091","OBJECT_ID":"2022-062A","EPOCH":"2025-07-27T19:58:01.353504","MEAN_MOTION":15.08846027,"ECCENTRICITY":0.0001179,"INCLINATION":53.2188,"RA_OF_ASC_NODE":323.7393,"ARG_OF_PERICENTER":89.0136,"MEAN_ANOMALY":271.0991,"EPHEMERIS_TYPE":0,"CLASSIFICATION_TYPE":"U","NORAD_CAT_ID":52830,"ELEMENT_SET_NO":999,"REV_AT_EPOCH":17234,"BSTAR":9.3483e-5,"MEAN_MOTION_DOT":1.2e-5,"MEAN_MOTION_DDOT":0},{"OBJECT_NAME":"STARLINK-4089","OBJECT_ID":"2022-062B","EPOCH":"2025-07-27T15:01:14.840544","MEAN_MOTION":15.08834446,"ECCENTRICITY":0.0001054,"INCLINATION":53.2183,"RA_OF_ASC_NODE":324.4719,"ARG_OF_PERICENTER":88.0076,"MEAN_ANOMALY":272.1037,"EPHEMERIS_TYPE":0,"CLASSIFICATION_TYPE":"U","NORAD_CAT_ID":52831,"ELEMENT_SET_NO":999,"REV_AT_EPOCH":17180,"BSTAR":-7.4283e-7,"MEAN_MOTION_DOT":-3.0e-6,"MEAN_MOTION_DDOT":0},{"OBJECT_NAME":"STARLINK-4083","OBJECT_ID":"2022-062C","EPOCH":"2025-07-27T21:17:29.438592","MEAN_MOTION":15.08825507,"ECCENTRICITY":0.0001373,"INCLINATION":53.2186,"RA_OF_ASC_NODE":323.2989,"ARG_OF_PERICENTER":92.1751,"MEAN_ANOMALY":267.9399,"EPHEMERIS_TYPE":0,"CLASSIFICATION_TYPE":"U","NORAD_CAT_ID":52832,"ELEMENT_SET_NO":999,"REV_AT_EPOCH":17233,"BSTAR":-0.00012784,"MEAN_MOTION_DOT":-2.321e-5,"MEAN_MOTION_DDOT":0},{"OBJECT_NAME":"STARLINK-4086","OBJECT_ID":"2022-062D","EPOCH":"2025-07-27T14:50:39.044544","MEAN_MOTION":15.0883255,"ECCENTRICITY":0.0001197,"INCLINATION":53.22,"RA_OF_ASC_NODE":324.506,"ARG_OF_PERICENTER":88.6221,"MEAN_ANOMALY":271.4908,"EPHEMERIS_TYPE":0,"CLASSIFICATION_TYPE":"U","NORAD_CAT_ID":52833,"ELEMENT_SET_NO":999,"REV_AT_EPOCH":17180,"BSTAR":3.482e-5,"MEAN_MOTION_DOT":2.66e-6,"MEAN_MOTION_DDOT":0},{"OBJECT_NAME":"STARLINK-4108","OBJECT_ID":"2022-062E","EPOCH":"2025-07-27T13:04:39.534528","MEAN_MOTION":15.088413,"ECCENTRICITY":0.0001205,"INCLINATION":53.2186,"RA_OF_ASC_NODE":324.8355,"ARG_OF_PERICENTER":71.6002,"MEAN_ANOMALY":288.5121,"EPHEMERIS_TYPE":0,"CLASSIFICATION_TYPE":"U","NORAD_CAT_ID":52834,"ELEMENT_SET_NO":999,"REV_AT_EPOCH":17179,"BSTAR":-2.1954e-5,"MEAN_MOTION_DOT":-6.37e-6,"MEAN_MOTION_DDOT":0},{"OBJECT_NAME":"STARLINK-4080","OBJECT_ID":"2022-062F","EPOCH":"2025-07-27T14:34:44.846400","MEAN_MOTION":15.08839424,"ECCENTRICITY":0.0001219,"INCLINATION":53.219,"RA_OF_ASC_NODE":324.5537,"ARG_OF_PERICENTER":89.6085,"MEAN_ANOMALY":270.5046,"EPHEMERIS_TYPE":0,"CLASSIFICATION_TYPE":"U","NORAD_CAT_ID":52835,"ELEMENT_SET_NO":999,"REV_AT_EPOCH":17180,"BSTAR":-3.0518e-5,"MEAN_MOTION_DOT":-7.73e-6,"MEAN_MOTION_DDOT":0},{"OBJECT_NAME":"STARLINK-4043","OBJECT_ID":"2022-062G","EPOCH":"2025-07-27T19:59:26.063520","MEAN_MOTION":15.08840039,"ECCENTRICITY":0.0001352,"INCLINATION":53.2201,"RA_OF_ASC_NODE":323.8632,"ARG_OF_PERICENTER":93.5239,"MEAN_ANOMALY":266.5908,"EPHEMERIS_TYPE":0,"CLASSIFICATION_TYPE":"U","NORAD_CAT_ID":52836,"ELEMENT_SET_NO":999,"REV_AT_EPOCH":17183,"BSTAR":8.4821e-5,"MEAN_MOTION_DOT":1.062e-5,"MEAN_MOTION_DDOT":0},{"OBJECT_NAME":"STARLINK-4036","OBJECT_ID":"2022-062H","EPOCH":"2025-07-27T19:04:59.898144","MEAN_MOTION":15.08846351,"ECCENTRICITY":0.0001222,"INCLINATION":53.2174,"RA_OF_ASC_NODE":323.7117,"ARG_OF_PERICENTER":78.8169,"MEAN_ANOMALY":281.296,"EPHEMERIS_TYPE":0,"CLASSIFICATION_TYPE":"U","NORAD_CAT_ID":52837,"ELEMENT_SET_NO":999,"REV_AT_EPOCH":17183,"BSTAR":6.9747e-6,"MEAN_MOTION_DOT":-1.77e-6,"MEAN_MOTION_DDOT":0},{"OBJECT_NAME":"STARLINK-4092","OBJECT_ID":"2022-062J","EPOCH":"2025-07-27T14:24:08.830080","MEAN_MOTION":15.08838513,"ECCENTRICITY":0.0001318,"INCLINATION":53.219,"RA_OF_ASC_NODE":324.5771,"ARG_OF_PERICENTER":88.7634,"MEAN_ANOMALY":271.3509,"EPHEMERIS_TYPE":0,"CLASSIFICATION_TYPE":"U","NORAD_CAT_ID":52838,"ELEMENT_SET_NO":999,"REV_AT_EPOCH":17229,"BSTAR":2.7064e-5,"MEAN_MOTION_DOT":1.43e-6,"MEAN_MOTION_DDOT":0},{"OBJECT_NAME":"STARLINK-4048","OBJECT_ID":"2022-062K","EPOCH":"2025-07-27T14:08:14.790912","MEAN_MOTION":15.0884444,"ECCENTRICITY":0.0001197,"INCLINATION":53.2186,"RA_OF_ASC_NODE":324.6389,"ARG_OF_PERICENTER":85.162,"MEAN_ANOMALY":274.9509,"EPHEMERIS_TYPE":0,"CLASSIFICATION_TYPE":"U","NORAD_CAT_ID":52839,"ELEMENT_SET_NO":999,"REV_AT_EPOCH":17180,"BSTAR":4.2057e-5,"MEAN_MOTION_DOT":3.82e-6,"MEAN_MOTION_DDOT":0},{"OBJECT_NAME":"STARLINK-4049","OBJECT_ID":"2022-062L","EPOCH":"2025-07-27T20:50:59.993088","MEAN_MOTION":15.08846016,"ECCENTRICITY":0.0001172,"INCLINATION":53.2192,"RA_OF_ASC_NODE":323.4969,"ARG_OF_PERICENTER":87.7668,"MEAN_ANOMALY":272.3459,"EPHEMERIS_TYPE":0,"CLASSIFICATION_TYPE":"U","NORAD_CAT_ID":52840,"ELEMENT_SET_NO":999,"REV_AT_EPOCH":17233,"BSTAR":2.4675e-5,"MEAN_MOTION_DOT":1.05e-6,"MEAN_MOTION_DDOT":0},{"OBJECT_NAME":"STARLINK-4065","OBJECT_ID":"2022-062M","EPOCH":"2025-07-27T13:52:21.250272","MEAN_MOTION":15.08832775,"ECCENTRICITY":0.0001215,"INCLINATION":53.2184,"RA_OF_ASC_NODE":324.6877,"ARG_OF_PERICENTER":85.3703,"MEAN_ANOMALY":274.7428,"EPHEMERIS_TYPE":0,"CLASSIFICATION_TYPE":"U","NORAD_CAT_ID":52841,"ELEMENT_SET_NO":999,"REV_AT_EPOCH":17180,"BSTAR":0.00013224,"MEAN_MOTION_DOT":1.817e-5,"MEAN_MOTION_DDOT":0},{"OBJECT_NAME":"STARLINK-4046","OBJECT_ID":"2022-062N","EPOCH":"2025-07-27T12:38:09.298464","MEAN_MOTION":15.08838401,"ECCENTRICITY":0.0001282,"INCLINATION":53.2195,"RA_OF_ASC_NODE":324.8418,"ARG_OF_PERICENTER":89.5101,"MEAN_ANOMALY":270.6038,"EPHEMERIS_TYPE":0,"CLASSIFICATION_TYPE":"U","NORAD_CAT_ID":52842,"ELEMENT_SET_NO":999,"REV_AT_EPOCH":17179,"BSTAR":1.4212e-5,"MEAN_MOTION_DOT":-6.2e-7,"MEAN_MOTION_DDOT":0},{"OBJECT_NAME":"STARLINK-4188","OBJECT_ID":"2022-062P","EPOCH":"2025-07-27T13:41:44.914272","MEAN_MOTION":15.08844612,"ECCENTRICITY":9.08e-5,"INCLINATION":53.2182,"RA_OF_ASC_NODE":324.7205,"ARG_OF_PERICENTER":82.1154,"MEAN_ANOMALY":277.9941,"EPHEMERIS_TYPE":0,"CLASSIFICATION_TYPE":"U","NORAD_CAT_ID":52843,"ELEMENT_SET_NO":999,"REV_AT_EPOCH":17229,"BSTAR":5.2366e-5,"MEAN_MOTION_DOT":5.46e-6,"MEAN_MOTION_DDOT":0},{"OBJECT_NAME":"STARLINK-4208","OBJECT_ID":"2022-062Q","EPOCH":"2025-07-27T14:02:57.246720","MEAN_MOTION":15.08839849,"ECCENTRICITY":0.0001103,"INCLINATION":53.2191,"RA_OF_ASC_NODE":324.6565,"ARG_OF_PERICENTER":81.1473,"MEAN_ANOMALY":278.9644,"EPHEMERIS_TYPE":0,"CLASSIFICATION_TYPE":"U","NORAD_CAT_ID":52844,"ELEMENT_SET_NO":999,"REV_AT_EPOCH":17180,"BSTAR":1.3217e-5,"MEAN_MOTION_DOT":-7.7e-7,"MEAN_MOTION_DDOT":0},{"OBJECT_NAME":"STARLINK-4168","OBJECT_ID":"2022-062R","EPOCH":"2025-07-27T12:11:40.643520","MEAN_MOTION":15.08840841,"ECCENTRICITY":0.0001187,"INCLINATION":53.219,"RA_OF_ASC_NODE":325.0692,"ARG_OF_PERICENTER":91.7408,"MEAN_ANOMALY":268.372,"EPHEMERIS_TYPE":0,"CLASSIFICATION_TYPE":"U","NORAD_CAT_ID":52845,"ELEMENT_SET_NO":999,"REV_AT_EPOCH":17179,"BSTAR":8.8237e-5,"MEAN_MOTION_DOT":1.117e-5,"MEAN_MOTION_DDOT":0},{"OBJECT_NAME":"STARLINK-4212","OBJECT_ID":"2022-062S","EPOCH":"2025-07-27T20:09:58.257504","MEAN_MOTION":15.0884487,"ECCENTRICITY":0.0001054,"INCLINATION":53.2189,"RA_OF_ASC_NODE":323.5215,"ARG_OF_PERICENTER":89.6947,"MEAN_ANOMALY":270.4166,"EPHEMERIS_TYPE":0,"CLASSIFICATION_TYPE":"U","NORAD_CAT_ID":52846,"ELEMENT_SET_NO":999,"REV_AT_EPOCH":17233,"BSTAR":4.9725e-5,"MEAN_MOTION_DOT":5.04e-6,"MEAN_MOTION_DDOT":0},{"OBJECT_NAME":"STARLINK-4206","OBJECT_ID":"2022-062T","EPOCH":"2025-07-27T13:31:09.815520","MEAN_MOTION":15.0883039,"ECCENTRICITY":0.0001446,"INCLINATION":53.2189,"RA_OF_ASC_NODE":324.7541,"ARG_OF_PERICENTER":97.4544,"MEAN_ANOMALY":262.6613,"EPHEMERIS_TYPE":0,"CLASSIFICATION_TYPE":"U","NORAD_CAT_ID":52847,"ELEMENT_SET_NO":999,"REV_AT_EPOCH":17229,"BSTAR":0.00011909,"MEAN_MOTION_DOT":1.607e-5,"MEAN_MOTION_DDOT":0},{"OBJECT_NAME":"STARLINK-4202","OBJECT_ID":"2022-062U","EPOCH":"2025-07-27T20:19:11.759232","MEAN_MOTION":15.08835357,"ECCENTRICITY":0.0001084,"INCLINATION":53.2177,"RA_OF_ASC_NODE":323.4839,"ARG_OF_PERICENTER":85.5214,"MEAN_ANOMALY":274.5902,"EPHEMERIS_TYPE":0,"CLASSIFICATION_TYPE":"U","NORAD_CAT_ID":52848,"ELEMENT_SET_NO":999,"REV_AT_EPOCH":17233,"BSTAR":-6.0921e-5,"MEAN_MOTION_DOT":-1.257e-5,"MEAN_MOTION_DDOT":0},{"OBJECT_NAME":"STARLINK-4197","OBJECT_ID":"2022-062V","EPOCH":"2025-07-27T13:21:52.684128","MEAN_MOTION":15.08842673,"ECCENTRICITY":0.0001196,"INCLINATION":53.2176,"RA_OF_ASC_NODE":314.7837,"ARG_OF_PERICENTER":85.9033,"MEAN_ANOMALY":274.2096,"EPHEMERIS_TYPE":0,"CLASSIFICATION_TYPE":"U","NORAD_CAT_ID":52849,"ELEMENT_SET_NO":999,"REV_AT_EPOCH":17193,"BSTAR":2.5301e-5,"MEAN_MOTION_DOT":1.15e-6,"MEAN_MOTION_DDOT":0}]
